
2014/06/06 13:53
KLVK 061353Z 29009KT 7SM CLR 13/11 A2982 RMK AO2 SLP094 T01330111
