
2014/12/05 20:15
KMQS 052015Z AUTO 09004KT 9SM OVC032 03/01 A3045 RMK AO2
