
2014/06/06 14:35
KHAF 061435Z AUTO 15010KT 3SM BR OVC006 12/10 A2986 RMK AO2
