
2014/06/06 13:49
KRHV 061349Z 14005KT 10SM SCT008 13/10 A2984
