
2014/06/06 13:53
KOAK 061353Z 36005KT 10SM OVC014 13/11 A2984 RMK AO2 SLP104 T01330106
