
2014/06/06 14:11
KHWD 061411Z 01003KT 10SM OVC011 11/11 A2984 RMK AO2 $
