
2014/06/06 13:56
KNUQ 061356Z 14005KT 10SM OVC013 14/11 A2984 RMK AO2 SLP109 T01440106 TSNO
