
2014/06/06 13:56
KSFO 061356Z 15005KT 10SM FEW010 14/11 A2983 RMK AO2 SLP102 T01390106
