
2014/06/06 13:53
KSJC 061353Z 13007KT 10SM FEW006 SCT011 12/10 A2984 RMK AO2 SLP105 T01220100
