
2014/06/06 13:55
KSQL 061355Z AUTO 32003KT 10SM OVC011 14/10 A2984 RMK AO2
