
2014/06/06 14:28
KWVI 061428Z AUTO 22003KT 6SM BR OVC005 12/11 A2988 RMK AO2 PK WND 21035/1415
